[{"name":"John L. Warfield Center for African and African American Studies","officetype":"Center","deans_code":"CAAS","depthead_name":"Omi Osun Joni L. Jones","depthead_email":"jonijones@mail.utexas.edu","address":"JES A232A, Mailcode D7200, Austin, TX","zip":"78712","phone":"512-471-1784","web_contact_email":"jfleming86@mail.utexas.edu"},{"name":"Department of American Studies","officetype":"Department","deans_code":"AMER","depthead_name":"Steven Hoelscher","depthead_email":"hoelscher@mail.utexas.edu","address":"Burdine 437, Mailcode B7100, Austin, TX","zip":"78712","phone":"512-471-7277","web_contact_email":"ellams@mail.utexas.edu"},{"name":"Department of Anthropology","officetype":"Department","deans_code":"ANTH","depthead_name":"Samuel M. Wilson","depthead_email":"s.wilson@mail.utexas.edu","address":"EPS 1.130, Mailcode C3200","zip":"","phone":"512-471-4206","web_contact_email":"cmcnett@mail.utexas.edu"},{"name":"Center for Arabic Study Abroad","officetype":"Center","deans_code":"CASA","depthead_name":"Martha Schulte-Nafeh","depthead_email":"marthas@austin.utexas.edu","address":"WMB 6.102, Mailcode F9400, Austin, TX","zip":"78712","phone":"512-471-3513","web_contact_email":"utcasa@austin.utexas.edu"},{"name":"Center for Asian American Studies","officetype":"Center","deans_code":"AAMS","depthead_name":"Lok Siu, Interim Director (Fall 2010)","depthead_email":"lok.siu@mail.utexas.edu","address":"GRG 220, Mailcode A2200, Austin, TX","zip":"78712","phone":"512-232-6427","web_contact_email":"barbaraj@austin.utexas.edu"},{"name":"Department of Asian Studies","officetype":"Department","deans_code":"ASIA","depthead_name":"Joel Brereton","depthead_email":"jpb@austin.utexas.edu","address":"WCH 4.134, Mailcode G9300, Austin, TX","zip":"78712","phone":"512-471-5811","web_contact_email":"dasgrads@austin.utexas.edu"},{"name":"Center for Australian and New Zealand Studies","officetype":"Center","deans_code":"CANZ","depthead_name":"John Higley","depthead_email":"jhigley@mail.la.utexas.edu","address":"HRC 3.362, Mailcode F1900, Austin, TX","zip":"78712","phone":"512-471-9607","web_contact_email":"ronda@austin.utexas.edu"},{"name":"Program in British Studies","officetype":"Program","deans_code":"BRIT","depthead_name":"W. Roger Louis, Philippa Levine","depthead_email":"britishstudies@mail.utexas.edu","address":"HRC 3.202, Mailcode F1900, Austin, TX","zip":"78712","phone":"512-475-7228","web_contact_email":"whitakerbob@gmail.com"},{"name":"Department of Classics","officetype":"Department","deans_code":"CLAS","depthead_name":"Stephen A. White","depthead_email":"sawhite@uts.cc.utexas.edu","address":"WAG 123, Mailcode C3400, Austin, TX","zip":"78712-0308","phone":"512-471-5742","web_contact_email":"cmwitt@mail.utexas.edu"},{"name":"Program in Comparative Literature","officetype":"Program","deans_code":"CPLT","depthead_name":"Elizabeth Richmond-Garza","depthead_email":"emrg@mail.utexas.edu","address":"CAL 217, Mailcode B5003, Austin, TX","zip":"78712","phone":"512-471-1925","web_contact_email":"CompLit@austin.utexas.edu"},{"name":"Americo Paredes Center for Cultural Studies","officetype":"Center","deans_code":"CULS","depthead_name":"John Hartigan","depthead_email":"hartigan@mail.utexas.edu","address":"EPS 1.130E, Mailcode C3200, Austin, TX","zip":"78712","phone":"512-471-5689","web_contact_email":"ahendrick@mail.utexas.edu"},{"name":"Center for East Asian Studies","officetype":"Center","deans_code":"","depthead_name":"Robert Oppenheim, Coordinator","depthead_email":"rmo@mail.utexas.edu","address":"WCH 4.134, Mailcode G9300, Austin, TX 78712","zip":"78712","phone":"512-475-6011","web_contact_email":"ceas@uts.cc.utexas.edu"},{"name":"Department of Economics","officetype":"Department","deans_code":"ECON","depthead_name":"Dale O. Stahl","depthead_email":"stahl@austin.utexas.edu","address":"BRB 1.116, Mailcode C3100, Austin, TX","zip":"78712","phone":"512-471-3211","web_contact_email":"stahl@austin.utexas.edu"},{"name":"Center for European Studies","officetype":"Center","deans_code":"EURO","depthead_name":"Douglas Biow","depthead_email":"biow@mail.utexas.edu","address":"MEZ 3.126, Mailcode A1800, Austin, TX","zip":"78712","phone":"512-232-3470","web_contact_email":"ces@austin.utexas.edu"},{"name":"Department of French and Italian","officetype":"Department","deans_code":"FRIT","depthead_name":"Daniela Bini","depthead_email":"bini@mail.utexas.edu","address":"HRH 2.114A, Mailcode B7600, Austin, TX","zip":"78712","phone":"512-471-5531","web_contact_email":"cbryce@austin.utexas.edu"},{"name":"Department of Geography and the Environment","officetype":"Department","deans_code":"GEOG","depthead_name":"Kenneth R. Young","depthead_email":"kryoung@austin.utexas.edu","address":"GRG 334, Mailcode A3100, Austin, TX","zip":"78712","phone":"512-471-5116","web_contact_email":"sounny@austin.utexas.edu"},{"name":"Department of Germanic Studies","officetype":"Department","deans_code":"GRMN","depthead_name":"Peter Hess","depthead_email":"phess@mail.utexas.edu","address":"BUR 336, Mailcode C3300, Austin, TX","zip":"78712-0304","phone":"512-471-4123","web_contact_email":"k.arens@mail.utexas.edu"},{"name":"Department of Government","officetype":"Department","deans_code":"GOVT","depthead_name":"Gary P. Freeman","depthead_email":"gfreeman@austin.utexas.edu","address":"BAT 2.116, Mailcode A1800, Austin, TX 78712","zip":"","phone":"512-471-5121","web_contact_email":"smtendler@austin.utexas.edu"},{"name":"Hemispheres","officetype":"Other","deans_code":"","depthead_name":"","depthead_email":"hemispheres@austin.utexas.edu","address":"Mailing Address: 1 University Station D0800, Austin, TX","zip":"78712","phone":"hemispheres@austin.utexas.edu","web_contact_email":"hemispheres@austin.utexas.edu"},{"name":"Institute for Historical Studies","officetype":"Institute","deans_code":"","depthead_name":"Julie Hardwick","depthead_email":"historyinstitute@austin.utexas.edu","address":"GAR 1.104, Mailcode B7000, Austin, TX","zip":"78712","phone":"512-471-3261","web_contact_email":"historyinstitute@austin.utexas.edu"},{"name":"Department of History","officetype":"Department","deans_code":"HIST","depthead_name":"Alan Tully","depthead_email":"tully@mail.utexas.edu","address":"GAR 1.104, Mailcode B7000, Austin, Texas","zip":"78712","phone":"512-471-3261","web_contact_email":"mgm3@mail.utexas.edu"},{"name":"Humanities Program","officetype":"Program","deans_code":"LAHH","depthead_name":"Larry D. Carver","depthead_email":"carver@mail.utexas.edu","address":"GEB 1.206, Mailcode G6210, Austin, TX","zip":"78712","phone":"512-471-3458","web_contact_email":"lahonors@austin.utexas.edu"},{"name":"Schusterman Center for Jewish Studies","officetype":"Center","deans_code":"SCJS","depthead_name":"Robert Abzug","depthead_email":"zug@mail.utexas.edu","address":"MEZ 3.314, Mailcode B3600, Austin, TX","zip":"78712","phone":"512-475-6178","web_contact_email":"galit@mail.utexas.edu"},{"name":"Latin American Jewish Studies Association","officetype":"Other","deans_code":"","depthead_name":"LAJSA Secretariat","depthead_email":"balbuena@uoregon.edu","address":"","zip":"","phone":"541-346-2311","web_contact_email":"lindstrom@austin.utexas.edu"},{"name":"Teresa Lozano Long Institute of Latin American Studies","officetype":"Institute","deans_code":"ILAS","depthead_name":"Charles R. Hale","depthead_email":"crhale@mail.utexas.edu","address":"SRH 1.310, Mailcode D0800, Austin, TX","zip":"78712","phone":"512.471.5551","web_contact_email":"kentn@mail.utexas.edu"},{"name":"Liberal Arts Honors Programs","officetype":"Program","deans_code":"LAHP","depthead_name":"Larry D. Carver","depthead_email":"carver@austin.utexas.edu","address":"GEB 1.206, Mailcode G6210, Austin, TX","zip":"78712","phone":"512-471-3458","web_contact_email":"lahonors@austin.utexas.edu"},{"name":"Department of Linguistics","officetype":"Department","deans_code":"LING","depthead_name":"Richard P. Meier","depthead_email":"rmeier@austin.utexas.edu","address":"CAL 501, Mailcode B5100, Austin, TX","zip":"78712","phone":"512-471-1701","web_contact_email":"lcrooks@mail.utexas.edu"},{"name":"Medieval Studies Program","officetype":"Program","deans_code":"PMDV","depthead_name":"TBA","depthead_email":"heng@mail.utexas.edu","address":"CAL 208, Mailcode B5000, Austin, TX","zip":"78712","phone":"512-471-5132","web_contact_email":"mikewidner@gmail.com"},{"name":"Center for Mexican American Studies","officetype":"Center","deans_code":"CMAS","depthead_name":"Jose E. Limon","depthead_email":"cmas01@uts.cc.utexas.edu","address":"WMB 5.102, F9200, Austin, TX","zip":"78712","phone":"(512) 471-4557","web_contact_email":"albertg@mail.utexas.edu"},{"name":"Center for Middle Eastern Studies","officetype":"Center","deans_code":"CMES","depthead_name":"Kamran S. Aghaie","depthead_email":"kamrana@mail.utexas.edu","address":"WMB 6.102, Mailcode F9400, Austin, TX","zip":"78712","phone":"512-471-3881","web_contact_email":"csrose@austin.utexas.edu"},{"name":"Department of Middle Eastern Studies","officetype":"Department","deans_code":"MEST","depthead_name":"Dr. Kristen Brustad","depthead_email":"brustad@austin.utexas.edu","address":"WMB 6.102, 1 Univ Sta F9400, Austin, TX","zip":"78712-0527","phone":"512-471-3881","web_contact_email":"dmes@uts.cc.utexas.edu"},{"name":"Department of Military Science","officetype":"Department","deans_code":"ARMY","depthead_name":"Boris G. Robinson","depthead_email":"robinsonbg@austin.utexas.edu","address":"SZB 564, Mailcode C3603, Austin, TX","zip":"78712","phone":"512-471-5919","web_contact_email":"robinsonbg@austin.utexas.edu"},{"name":"Department of Naval Science","officetype":"Department","deans_code":"NAVY","depthead_name":"CAPT Dan Dixon","depthead_email":"co@austin.utexas.edu","address":"SZB 562, Mailcode C3604, Austin, TX","zip":"78712","phone":"512-471-7649","web_contact_email":"co@austin.utexas.edu"},{"name":"Department of Philosophy","officetype":"Department","deans_code":"PHIL","depthead_name":"Cory Juhl","depthead_email":"cjuhl@mail.utexas.edu","address":"WAG  316, Mailcode C3500, Austin, TX","zip":"78712","phone":"512-471-4857","web_contact_email":"lisa.talen@austin.utexas.edu"},{"name":"Plan II Honors Program","officetype":"Program","deans_code":"PLII","depthead_name":"Michael B. Stoff","depthead_email":"","address":"WCH 4.104, Mailcode G3600, Austin, TX","zip":"78712","phone":"512-471-1442","web_contact_email":"scalora@mail.utexas.edu"},{"name":"Population Research Center","officetype":"Center","deans_code":"PPRC","depthead_name":"Mark D. Hayward","depthead_email":"mhayward@prc.utexas.edu","address":"1 University Station G1800, Austin, TX","zip":"78712","phone":"512-471-5514","web_contact_email":"webprc@prc.utexas.edu"},{"name":"Public Policy Institute","officetype":"Institute","deans_code":"","depthead_name":"David Leal","depthead_email":"dleal@austin.utexas.edu","address":"Mailcode A1800, Austin, TX","zip":"78712","phone":"512-232-7277","web_contact_email":"jstrube@austin.utexas.edu"},{"name":"Department of Religious Studies","officetype":"Department","deans_code":"RELG","depthead_name":"Martha G. Newman","depthead_email":"newman@mail.utexas.edu","address":"BUR 406, Mailcode A3700, Austin, TX","zip":"78712","phone":"512-232-7737","web_contact_email":"j.diener@mail.utexas.edu"},{"name":"Center for Russian, East European, and Eurasian Studies","officetype":"Center","deans_code":"CSEE","depthead_name":"Mary Neuburger","depthead_email":"burgerm@austin.utexas.edu","address":"GRG 106, Mailcode A1600, Austin, TX","zip":"78712","phone":"512-471-7782","web_contact_email":"p.harmon@mail.utexas.edu"},{"name":"Science, Technology, and Society","officetype":"Other","deans_code":"STS1","depthead_name":"Elizabeth L. Keating","depthead_email":"ekeating@mail.utexas.edu","address":"FAC 17, Mailcode G6400, Austin, TX","zip":"78712","phone":"512-471-8518","web_contact_email":"ekeating@mail.utexas.edu"},{"name":"Shakespeare at Winedale","officetype":"Program","deans_code":"","depthead_name":"James Loehlin","depthead_email":"jnloehlin@mail.utexas.edu","address":"I University Station, B5000, Austin, TX","zip":"78712","phone":"512-471-4726","web_contact_email":"lfisher@mail.utexas.edu"},{"name":"Department of Slavic and Eurasian Studies","officetype":"Department","deans_code":"SLAV","depthead_name":"Mary Neuburger","depthead_email":"burgerm@austin.utexas.edu","address":"CAL 415, Mailcode F3600, Austin, TX","zip":"78712","phone":"512-471-3607","web_contact_email":"p.harmon@mail.utexas.edu"},{"name":"Department of Sociology","officetype":"Department","deans_code":"SOCL","depthead_name":"Christine L. Williams","depthead_email":"cwilliams@austin.utexas.edu","address":"BUR 536 \/ 230 (Advising), Mailcode A1700, Austin, TX","zip":"78712","phone":"512-471-1122","web_contact_email":"kevin.hsu@austin.utexas.edu"},{"name":"South Asia Institute","officetype":"Institute","deans_code":"SAIN","depthead_name":"Kathryn Hansen","depthead_email":"kgh@austin.utexas.edu","address":"WCH 4.132, Mailcode G9300, Austin, TX","zip":"78712","phone":"512-471-3550","web_contact_email":"darntz@austin.utexas.edu"},{"name":"Department of Spanish & Portuguese","officetype":"Department","deans_code":"SPAN","depthead_name":"Jill Robbins","depthead_email":"jillrobbins@austin.utexas.edu","address":"BEN 2.116, Mailcode B3700, Austin, TX","zip":"78712","phone":"512-471-4936","web_contact_email":"ddavis1@austin.utexas.edu"},{"name":"UTeach-Liberal Arts","officetype":"Program","deans_code":"UTLA","depthead_name":"Richard R. Flores","depthead_email":"rrflores@austin.utexas.edu","address":"GEB 1.308, Mailcode G6000, Austin, TX","zip":"78712","phone":"(512) 232-2789","web_contact_email":"hannahmckenna@austin.utexas.edu"},{"name":"Thomas Jefferson Center for the Study of Core Texts and Ideas","officetype":"Center","deans_code":"CTXT","depthead_name":"Lorraine Pangle and Thomas L. Pangle, Co-Directors","depthead_email":"tpangle@austin.utexas.edu","address":"MEZ 3.150, C4100, Austin, TX","zip":"78712","phone":"512-471-6648","web_contact_email":"cchrisco@mail.utexas.edu"},{"name":"Center for Women's and Gender Studies","officetype":"Center","deans_code":"CWGS","depthead_name":"Susan Sage Heinzelman","depthead_email":"sheinz@mail.utexas.edu","address":"WWH 401, Campus Mail A4900, Austin, TX","zip":"78712","phone":"512-471-5765","web_contact_email":"ajsalcedo@mail.utexas.edu"},{"name":"Test Standard","officetype":"Other","deans_code":"","depthead_name":"Dr. D. Tested","depthead_email":"","address":"","zip":"","phone":"","web_contact_email":"contact@mail.com"},{"name":"Test Targeted","officetype":"Other","deans_code":"","depthead_name":"Dr. Hap \"Aloisius\" Less","depthead_email":"","address":"","zip":"","phone":"","web_contact_email":"us@mailbox.com"},{"name":"Liberal Arts Instructional Technology Services","officetype":"Dean","deans_code":"","depthead_name":"Joe C. TenBarge","depthead_email":"tenbarge@mail.utexas.edu","address":"MEZ 2.302, Mailcode B3500, Austin, TX","zip":"78712","phone":"512-471-7095","web_contact_email":"millertime@mail.utexas.edu"},{"name":"Department of English","officetype":"Department","deans_code":"ENGL","depthead_name":"Elizabeth Cullingford","depthead_email":"cullingford@mail.utexas.edu","address":"PAR 108, Mailcode B5000, Austin, TX","zip":"78712","phone":"512-471-4991","web_contact_email":"amgolden@mail.utexas.edu"},{"name":"Department of Rhetoric and Writing","officetype":"Department","deans_code":"RHEC","depthead_name":"Jeffrey Walker","depthead_email":"jswalker@mail.utexas.edu","address":"PAR 3, Mailcode B5500, Austin, TX","zip":"78712","phone":"512-471-6109","web_contact_email":"hschwadron@mail.utexas.edu"},{"name":"Department of Psychology","officetype":"Department","deans_code":"PSYC","depthead_name":"James W Pennebaker","depthead_email":"pennebaker@mail.utexas.edu","address":"SEA  4.212, Mailcode A8000, Austin, TX","zip":"78712","phone":"512-471-1157","web_contact_email":"pennebaker@mail.utexas.edu"},{"name":"Department of Air Force Science","officetype":"Department","deans_code":"AFS1","depthead_name":"Christopher W. Bowman","depthead_email":"c.bowman@austin.utexas.edu","address":"BEL 605, Mailcode C3600, Austin, TX","zip":"78712","phone":"512-471-1776","web_contact_email":"afsadmin@uts.cc.utexas.edu"},{"name":"Academic Affairs","officetype":"Dean","deans_code":"ACAD","depthead_name":"Richard R. Flores","depthead_email":"rrflores@austin.utexas.edu","address":"GEB 3.210","zip":"78712","phone":"512-471-9209","web_contact_email":"hannahmckenna@austin.utexas.edu"},{"name":"Business Affairs","officetype":"Dean","deans_code":"BUSA","depthead_name":"James A. Southerland Jr.","depthead_email":"jamie@austin.utexas.edu","address":"GEB 3.308, Mailcode G6000, Austin, TX","zip":"78712","phone":"512-471-8989","web_contact_email":"lisenlon@austin.utexas.edu"},{"name":"Administrative Computing Services","officetype":"Dean","deans_code":"COMP","depthead_name":"Tracy Brown","depthead_email":"","address":"","zip":"","phone":"","web_contact_email":"la-help@utlists.utexas.edu"},{"name":"College Administration","officetype":"Dean","deans_code":"DEAN","depthead_name":"","depthead_email":"","address":"","zip":"","phone":"","web_contact_email":""},{"name":"Development and Alumni Relations","officetype":"Dean","deans_code":"DEVA","depthead_name":"Kathleen M. Aronson","depthead_email":"mcaronson@austin.utexas.edu","address":"GEB 4.316, Mailcode G6000, Austin, TX","zip":"78712","phone":"512-475-9763","web_contact_email":"emnorris@austin.utexas.edu"},{"name":"Human Resources","officetype":"Dean","deans_code":"HRSO","depthead_name":"Gail A. Davis","depthead_email":"gaildavis@austin.utexas.edu","address":"GEB 4.314, Mailcode G6000, Austin, TX","zip":"78712","phone":"512-232-2132","web_contact_email":"la-hr-website-comments@utlists.utexas.edu"},{"name":"Public Affairs","officetype":"Dean","deans_code":"PUBA","depthead_name":"Gary Susswein","depthead_email":"","address":"Austin, TX","zip":"78712","phone":"","web_contact_email":"sinnjessica@austin.utexas.edu"},{"name":"Research and Instructional Support","officetype":"Dean","deans_code":"RSCH","depthead_name":"Daniel T. Slesnick","depthead_email":"slesnick@austin.utexas.edu","address":"GEB 3.212, Mailcode G6000, Austin, TX","zip":"78712","phone":"512-232-2018","web_contact_email":"meserve@austin.utexas.edu"},{"name":"Special Programs","officetype":"Dean","deans_code":"SPEC","depthead_name":"","depthead_email":"","address":"","zip":"","phone":"","web_contact_email":""},{"name":"Student Division","officetype":"Dean","deans_code":"STUD","depthead_name":"Marc A. Musick","depthead_email":"musick@mail.utexas.edu","address":"GEB 2.200, Mailcode G6100, Austin, TX","zip":"78712","phone":"512-471-4271","web_contact_email":"stephendwong@mail.utexas.edu"},{"name":"Test Unit","officetype":"Other","deans_code":"XXOOXO","depthead_name":"Head T. O. Foot","depthead_email":"htofoot@email.com","address":"'Sir' or 'Sire'","zip":"","phone":"01-512-777-7777","web_contact_email":""},{"name":"Imaging Research Center","officetype":"Center","deans_code":"IMRC","depthead_name":"Russell Poldrack","depthead_email":"poldrack@mail.utexas.edu","address":"3925-B West Braker Lane, Mailcode R9975, Austin, TX","zip":"78759","phone":"512-232 4203","web_contact_email":"webmaster@irc.utexas.edu"},{"name":"Linguistics Research Center","officetype":"Center","deans_code":"LIRC","depthead_name":"Jonathan Slocum","depthead_email":"JSlocum@mail.utexas.edu","address":"PCL 5.112, Mailcode S5490, Austin, TX","zip":"78712","phone":"512-471-4566","web_contact_email":"utlrc@uts.cc.utexas.edu"},{"name":"Center for Perceptual Systems","officetype":"Center","deans_code":"CVIS","depthead_name":"Wilson Geisler","depthead_email":"geisler@psy.utexas.edu","address":"SEA  4.328A, Mailcode A8000, Austin, TX","zip":"78712","phone":"512-471-5380","web_contact_email":"fry@psy.utexas.edu"},{"name":"Center for Open Educational Resources and Language Learning","officetype":"Center","deans_code":"LTEC","depthead_name":"Carl Blyth","depthead_email":"cblyth@mail.utexas.edu","address":"MEZ 2.126, Mailcode  B3500, Austin, TX","zip":"78712","phone":"512-232-2312","web_contact_email":"info@coerll.la.utexas.edu"},{"name":"Humanities Institute","officetype":"Institute","deans_code":"HMNI","depthead_name":"Pauline Strong","depthead_email":"strong@humanitiesinstitute.utexas.edu","address":"HRC  3.360, Mailcode F1900, Austin, TX","zip":"78712","phone":"512-471-2654","web_contact_email":"information@humanitiesinstitute.utexas.edu"},{"name":"Institute for the Study of Antiquity and Christian Origins","officetype":"Research Unit","deans_code":"IACO","depthead_name":"L. Michael White","depthead_email":"lmwhite@mail.utexas.edu","address":"WAG 212, Mailcode C3450, Austin, TX","zip":"78712","phone":"512-232-1438","web_contact_email":"johannaj@mail.utexas.edu"},{"name":"Institute of Classical Archaeology","officetype":"Research Unit","deans_code":"ICAR","depthead_name":"Joseph C. Carter","depthead_email":"j.carter@mail.utexas.edu","address":"ICA 3925 W. Braker Lane, Austin, TX","zip":"78759","phone":"512-232-9321","web_contact_email":"icainfo@uts.cc.utexas.edu"},{"name":"Texas Archaeological Research Laboratory","officetype":"Research Unit","deans_code":"TARL","depthead_name":"Darrell G. Creel","depthead_email":"dcreel@mail.utexas.edu","address":"TAR, Mailcode R7500, Austin, TX","zip":"78712","phone":"512-471-5960","web_contact_email":"druetz@mail.utexas.edu"},{"name":"Research","officetype":"Dean","deans_code":"","depthead_name":"Esther L. Raizen","depthead_email":"raizen@austin.utexas.edu","address":"GEB 2.212, Mailcode G6000, Austin, TX","zip":"78712","phone":"512-232-2094","web_contact_email":"apter@austin.utexas.edu"},{"name":"France-University of Texas Institute","officetype":"Institute","deans_code":"","depthead_name":"Douglas Biow","depthead_email":"biow@mail.utexas.edu","address":"MEZ 3.126, Mailcode A1800, Austin, TX","zip":"78712","phone":"512-232-3470","web_contact_email":"ces@mail.la.utexas.edu"},{"name":"Office of the Dean","officetype":"Dean","deans_code":"DEAN","depthead_name":"Randy L. Diehl","depthead_email":"diehl@austin.utexas.edu","address":"GEB 3.200, Mailcode G6000, Austin, TX","zip":"78712","phone":"512-471-4141","web_contact_email":"heike@austin.utexas.edu"},{"name":"Phi Beta Kappa","officetype":"Other","deans_code":"","depthead_name":"Carol MacKay, President","depthead_email":"mackay@mail.utexas.edu","address":"","zip":"","phone":"512-471-6524","web_contact_email":"uhc@uts.cc.utexas.edu\/"},{"name":"Texas Language Center","officetype":"Center","deans_code":"","depthead_name":"Thomas J. Garza","depthead_email":"tjgarza@mail.utexas.edu","address":"HRH 4.196  1 University Station, B7800 ","zip":"78712","phone":"512-471-6574","web_contact_email":"a.mcmillan@austin.utexas.edu"},{"name":"Texas Institute for Literary and Textual Studies","officetype":"Other","deans_code":"","depthead_name":"Frank Whigham & Wayne Rebhorn","depthead_email":"ffw@mail.utexas.edu","address":"PAR 316, Mailcode B5000, Austin, TX","zip":"78712","phone":"512-232-2343","web_contact_email":"TILTS.renaissance@austin.utexas.edu"},{"name":"African and African Diaspora Studies Department","officetype":"Department","deans_code":"AADS","depthead_name":"Edmund T. Gordon","depthead_email":"etgordon@mail.utexas.edu","address":"JES A232, Mailcode D7200, Austin, TX","zip":"78712","phone":"512-471-1784","web_contact_email":"aplant@austin.utexas.edu"},{"name":"Indigenous Studies","officetype":"Other","deans_code":"","depthead_name":"Matthew Cohen and Martha Menchaca","depthead_email":"","address":"","zip":"","phone":"","web_contact_email":"matt.cohen@mail.utexas.edu"}]